$$SOE
2460154.500000000, A.D. 2023-Jul-29 00:00:00.0000, 2.398278916307785E+08, 3.236500907034328E+08, -3.682914889040023E+06,
2460161.500000000, A.D. 2023-Aug-05 00:00:00.0000, 2.297349179095306E+08, 3.295692690025265E+08, -3.796953912968189E+06,
2460168.500000000, A.D. 2023-Aug-12 00:00:00.0000, 2.194701868611999E+08, 3.352417590216360E+08, -3.908156698969364E+06,
2460175.500000000, A.D. 2023-Aug-19 00:00:00.0000, 2.090400826967648E+08, 3.406613427290134E+08, -4.016416456799537E+06,
2460182.500000000, A.D. 2023-Aug-26 00:00:00.0000, 1.984512702913381E+08, 3.458219827172976E+08, -4.121628028553396E+06,
2460189.500000000, A.D. 2023-Sep-02 00:00:00.0000, 1.877106901984688E+08, 3.507178379431295E+08, -4.223688119322464E+06,
2460196.500000000, A.D. 2023-Sep-09 00:00:00.0000, 1.768255526346856E+08, 3.553432793036249E+08, -4.322495541687742E+06,
2460203.500000000, A.D. 2023-Sep-16 00:00:00.0000, 1.658033305868028E+08, 3.596929049128409E+08, -4.417951493094057E+06,
2460210.500000000, A.D. 2023-Sep-23 00:00:00.0000, 1.546517524497392E+08, 3.637615552842629E+08, -4.509959879710957E+06,
2460217.500000000, A.D. 2023-Sep-30 00:00:00.0000, 1.433787938557453E+08, 3.675443295267407E+08, -4.598427557371661E+06,
2460224.500000000, A.D. 2023-Oct-07 00:00:00.0000, 1.319926663484682E+08, 3.710366019211525E+08, -4.683264316915214E+06,
2460231.500000000, A.D. 2023-Oct-14 00:00:00.0000, 1.205018039526570E+08, 3.742340354754186E+08, -4.764382978185371E+06,
2460238.500000000, A.D. 2023-Oct-21 00:00:00.0000, 1.089148508924583E+08, 3.771325939772593E+08, -4.841699756622612E+06,
2460245.500000000, A.D. 2023-Oct-28 00:00:00.0000, 9.724064906863262E+07, 3.797285547149599E+08, -4.915134586163789E+06,
2460252.500000000, A.D. 2023-Nov-04 00:00:00.0000, 8.548822408231907E+07, 3.820185210037596E+08, -4.984611345073223E+06,
2460259.500000000, A.D. 2023-Nov-11 00:00:00.0000, 7.366677002637471E+07, 3.839994338319498E+08, -5.050058048013806E+06,
2460266.500000000, A.D. 2023-Nov-18 00:00:00.0000, 6.178563331589942E+07, 3.856685824842908E+08, -5.111407027826816E+06,
2460273.500000000, A.D. 2023-Nov-25 00:00:00.0000, 4.985429569334743E+07, 3.870236140947075E+08, -5.168595110245138E+06,
2460280.500000000, A.D. 2023-Dec-02 00:00:00.0000, 3.788235650952268E+07, 3.880625420518035E+08, -5.221563783788085E+06,
2460287.500000000, A.D. 2023-Dec-09 00:00:00.0000, 2.587951443994159E+07, 3.887837531367130E+08, -5.270259375696242E+06,
2460294.500000000, A.D. 2023-Dec-16 00:00:00.0000, 1.385554901168087E+07, 3.891860133486189E+08, -5.314633258001596E+06,
2460301.500000000, A.D. 2023-Dec-23 00:00:00.0000, 1.820302380797332E+06, 3.892684730555243E+08, -5.354642057892978E+06,
2460308.500000000, A.D. 2023-Dec-30 00:00:00.0000, -1.021633988404553E+07, 3.890306724795691E+08, -5.390247661996156E+06,
2460315.500000000, A.D. 2024-Jan-06 00:00:00.0000, -2.224447068637068E+07, 3.884725451210477E+08, -5.421417044350833E+06,
2460322.500000000, A.D. 2024-Jan-13 00:00:00.0000, -3.425418268870026E+07, 3.875944172856092E+08, -5.448122360258758E+06,
2460329.500000000, A.D. 2024-Jan-20 00:00:00.0000, -4.623558767492560E+07, 3.863970067854250E+08, -5.470341171875030E+06,
2460336.500000000, A.D. 2024-Jan-27 00:00:00.0000, -5.817883590157686E+07, 3.848814214640016E+08, -5.488056562577546E+06,
2460343.500000000, A.D. 2024-Feb-03 00:00:00.0000, -7.007413575964725E+07, 3.830491566093866E+08, -5.501257169506401E+06,
2460350.500000000, A.D. 2024-Feb-10 00:00:00.0000, -8.191177337204164E+07, 3.809020909881732E+08, -5.509937182691127E+06,
2460357.500000000, A.D. 2024-Feb-17 00:00:00.0000, -9.368213188919145E+07, 3.784424815355924E+08, -5.514096326883003E+06,
2460364.500000000, A.D. 2024-Feb-24 00:00:00.0000, -1.053757103475490E+08, 3.756729567509276E+08, -5.513739830621436E+06,
2460371.500000000, A.D. 2024-Mar-02 00:00:00.0000, -1.169831419661268E+08, 3.725965088095070E+08, -5.508878388525054E+06,
2460378.500000000, A.D. 2024-Mar-09 00:00:00.0000, -1.284952116527446E+08, 3.692164843809433E+08, -5.499528134877592E+06,
2460385.500000000, A.D. 2024-Mar-16 00:00:00.0000, -1.399028722420321E+08, 3.655365744112455E+08, -5.485710648950323E+06,
2460392.500000000, A.D. 2024-Mar-23 00:00:00.0000, -1.511972594939795E+08, 3.615608040462139E+08, -5.467452892548054E+06,
2460399.500000000, A.D. 2024-Mar-30 00:00:00.0000, -1.623697080259958E+08, 3.572935227460709E+08, -5.444786877515197E+06,
2460406.500000000, A.D. 2024-Apr-06 00:00:00.0000, -1.734117678581996E+08, 3.527393913017883E+08, -5.417749362722293E+06,
2460413.500000000, A.D. 2024-Apr-13 00:00:00.0000, -1.843152179684885E+08, 3.479033666672814E+08, -5.386381838117540E+06,
2460420.500000000, A.D. 2024-Apr-20 00:00:00.0000, -1.950720777697878E+08, 3.427906873728284E+08, -5.350730490987703E+06,
2460427.500000000, A.D. 2024-Apr-27 00:00:00.0000, -2.056746179909117E+08, 3.374068590507433E+08, -5.310846062679306E+06,
2460434.500000000, A.D. 2024-May-04 00:00:00.0000, -2.161153708451610E+08, 3.317576394598867E+08, -5.266783662364364E+06,
2460441.500000000, A.D. 2024-May-11 00:00:00.0000, -2.263871392302102E+08, 3.258490229972902E+08, -5.218602569003373E+06,
2460448.500000000, A.D. 2024-May-18 00:00:00.0000, -2.364830048680626E+08, 3.196872248088347E+08, -5.166366028290004E+06,
2460455.500000000, A.D. 2024-May-25 00:00:00.0000, -2.463963353592977E+08, 3.132786645812054E+08, -5.110141048465297E+06,
2460462.500000000, A.D. 2024-Jun-01 00:00:00.0000, -2.561207900984934E+08, 3.066299500449954E+08, -5.049998206187278E+06,
2460469.500000000, A.D. 2024-Jun-08 00:00:00.0000, -2.656503248185714E+08, 2.997478602504102E+08, -4.986011487884596E+06,
2460476.500000000, A.D. 2024-Jun-15 00:00:00.0000, -2.749791943858116E+08, 2.926393292414721E+08, -4.918258159612387E+06,
2460483.500000000, A.D. 2024-Jun-22 00:00:00.0000, -2.841019548795591E+08, 2.853114313814725E+08, -4.846818478219584E+06,
2460490.500000000, A.D. 2024-Jun-29 00:00:00.0000, -2.930134671127120E+08, 2.777713665846698E+08, -4.771775199335173E+06,
2460497.500000000, A.D. 2024-Jul-06 00:00:00.0000, -3.017088989820485E+08, 2.700264430525876E+08, -4.693213327536672E+06,
2460504.500000000, A.D. 2024-Jul-13 00:00:00.0000, -3.101837247367605E+08, 2.620840603974754E+08, -4.611220056905076E+06,
2460511.500000000, A.D. 2024-Jul-20 00:00:00.0000, -3.184337231968981E+08, 2.539516943565611E+08, -4.525884626738727E+06,
2460518.500000000, A.D. 2024-Jul-27 00:00:00.0000, -3.264549756256692E+08, 2.456368821884168E+08, -4.437298111491874E+06,
2460525.500000000, A.D. 2024-Aug-03 00:00:00.0000, -3.342438630331209E+08, 2.371472084192767E+08, -4.345553201142490E+06,
2460532.500000000, A.D. 2024-Aug-10 00:00:00.0000, -3.417970628007731E+08, 2.284902909726603E+08, -4.250743988307372E+06,
2460539.500000000, A.D. 2024-Aug-17 00:00:00.0000, -3.491115446379366E+08, 2.196737677391440E+08, -4.152965765744418E+06,
2460546.500000000, A.D. 2024-Aug-24 00:00:00.0000, -3.561845658995543E+08, 2.107052835955954E+08, -4.052314839767158E+06,
2460553.500000000, A.D. 2024-Aug-31 00:00:00.0000, -3.630136662057883E+08, 2.015924778385718E+08, -3.948888376175955E+06,
2460560.500000000, A.D. 2024-Sep-07 00:00:00.0000, -3.695966610519291E+08, 1.923429721780330E+08, -3.842784302618295E+06,
2460567.500000000, A.D. 2024-Sep-14 00:00:00.0000, -3.759316343764120E+08, 1.829643603006399E+08, -3.734101194329560E+06,
2460574.500000000, A.D. 2024-Sep-21 00:00:00.0000, -3.820169321692502E+08, 1.734641994234299E+08, -3.622937923983552E+06,
2460581.500000000, A.D. 2024-Sep-28 00:00:00.0000, -3.878511576618180E+08, 1.638500006158764E+08, -3.509393295309864E+06,
2460588.500000000, A.D. 2024-Oct-05 00:00:00.0000, -3.934331644763526E+08, 1.541292178939228E+08, -3.393565997026250E+06,
2460595.500000000, A.D. 2024-Oct-12 00:00:00.0000, -3.987620481406716E+08, 1.443092390607566E+08, -3.275554600246973E+06,
2460602.500000000, A.D. 2024-Oct-19 00:00:00.0000, -4.038371377663749E+08, 1.343973780153183E+08, -3.155457461137548E+06,
2460609.500000000, A.D. 2024-Oct-26 00:00:00.0000, -4.086579879685125E+08, 1.244008677188244E+08, -3.033372591615148E+06,
2460616.500000000, A.D. 2024-Nov-02 00:00:00.0000, -4.132243708104871E+08, 1.143268536600412E+08, -2.909397533788361E+06,
2460623.500000000, A.D. 2024-Nov-09 00:00:00.0000, -4.175362677155657E+08, 1.041823878260491E+08, -2.783629245133750E+06,
2460630.500000000, A.D. 2024-Nov-16 00:00:00.0000, -4.215938613546782E+08, 9.397442316257687E+07, -2.656163996569254E+06,
2460637.500000000, A.D. 2024-Nov-23 00:00:00.0000, -4.253975274967025E+08, 8.370980845617583E+07, -2.527097291587338E+06,
2460644.500000000, A.D. 2024-Nov-30 00:00:00.0000, -4.289478266434333E+08, 7.339528357639664E+07, -2.396523828775492E+06,
2460651.500000000, A.D. 2024-Dec-07 00:00:00.0000, -4.322454950574607E+08, 6.303747547818487E+07, -2.264537511497278E+06,
2460658.500000000, A.D. 2024-Dec-14 00:00:00.0000, -4.352914358966212E+08, 5.264289616673649E+07, -2.131231341199823E+06,
2460665.500000000, A.D. 2024-Dec-21 00:00:00.0000, -4.380867127974611E+08, 4.221794136129962E+07, -1.996697082833333E+06,
2460672.500000000, A.D. 2024-Dec-28 00:00:00.0000, -4.406325439579768E+08, 3.176888686870694E+07, -1.861025125539096E+06,
2460679.500000000, A.D. 2025-Jan-04 00:00:00.0000, -4.429302941398863E+08, 2.130188502162139E+07, -1.724304581994632E+06,
2460686.500000000, A.D. 2025-Jan-11 00:00:00.0000, -4.449814664251222E+08, 1.082296281789080E+07, -1.586623322999852E+06,
2460693.500000000, A.D. 2025-Jan-18 00:00:00.0000, -4.467876946575335E+08, 3.380208177809465E+05, -1.448067937879221E+06,
2460700.500000000, A.D. 2025-Jan-25 00:00:00.0000, -4.483507363398222E+08, -1.014716769839041E+07, -1.308723681448967E+06,
2460707.500000000, A.D. 2025-Feb-01 00:00:00.0000, -4.496724658070152E+08, -2.062695736426165E+07, -1.168674426875680E+06,
2460714.500000000, A.D. 2025-Feb-08 00:00:00.0000, -4.507548676264649E+08, -3.109583115515479E+07, -1.028002627622426E+06,
2460721.500000000, A.D. 2025-Feb-15 00:00:00.0000, -4.516000302024027E+08, -4.154840065104095E+07, -8.867892922636494E+05,
$$EOE